IDEFIX & ARIANE 42P R/B 
1 27422U 02021B   25357.07175023  .00000290  00000+0  12681-3 0  9990
2 27422  98.5801 291.6291 0012813  55.8083 304.4313 14.30957378233063
AQUA                    
1 27424U 02022A   25357.09938124  .00000905  00000+0  19103-3 0  9993
2 27424  98.4053 318.1475 0001484 109.2410 342.3415 14.61823033257549
CZ-4B R/B               
1 27432U 02024C   25357.11292271  .00000066  00000+0  57331-4 0  9997
2 27432  98.8984  45.8479 0049318 239.8816 174.4513 14.14530059218418
MIDORI II (ADEOS-II)    
1 27597U 02056A   25356.86664229  .00000245  00000+0  11434-3 0  9993
2 27597  98.7653 309.8768 0000712 148.9986 211.1237 14.29212003199321
H-2A R/B                
1 27601U 02056E   25357.13949940  .00000373  00000+0  14531-3 0  9999
2 27601  98.3082 315.4828 0070997  30.5577 340.0752 14.33684784203147
CZ-4B R/B               
1 28059U 03049C   25356.84277790  .00000359  00000+0  93981-4 0  9995
2 28059  98.6795 343.7886 0049348 105.8352 254.8292 14.54918445175427
CZ-2C R/B               
1 28222U 04012C   25356.77250257  .00040041  00000+0  56709-3 0  9997
2 28222  97.7400  50.2269 0016520 231.3036 128.6741 15.56229086192286
SL-16 R/B               
1 28353U 04021B   25357.22854769  .00000057  00000+0  54539-4 0  9994
2 28353  71.0005  32.9543 0004720 182.5719 177.5380 14.14579041112021
CZ-4B R/B               
1 28415U 04035C   25357.04310018  .00009343  00000+0  34458-3 0  9996
2 28415  97.3590  27.2497 0031647 239.0694 120.7433 15.27529993168209
CZ-2C R/B               
1 28480U 04046B   25357.19637960  .00000254  00000+0  10944-3 0  9990
2 28480  98.1998 271.9247 0140005  21.5564 339.1434 14.26946537 97597
ARIANE 5 R/B            
1 28499U 04049H   25357.02907501  .00001206  00000+0  13999-3 0  9997
2 28499  98.2528 157.6797 0083423 239.1240 120.1750 14.85036922134410
CZ-2D R/B               
1 28738U 05024B   25356.77058538  .00031293  00000+0  48889-3 0  9990
2 28738  97.3624   4.4840 0003835 326.9384  33.1629 15.53739982127810
